{"type":"FeatureCollection","features":[{"type":"Feature","bbox":[37.2620697,6.1701144,37.2620697,6.1701144],"geometry":{"type":"Point","coordinates":[37.2620697,6.1701144]},"properties":{"eventtype":"FL","eventid":1103798,"episodeid":1,"eventname":"","glide":"FL-2026-000033-ETH","name":"Flood in Ethiopia","description":"Flood in Ethiopia","htmldescription":"Orange Flood in Ethiopia from: 09 Mar 2026 01 to: 11 Mar 2026 01.","icon":"https://www.gdacs.org/images/gdacs_icons/maps/Orange/FL.png","iconoverall":"https://www.gdacs.org/images/gdacs_icons/maps/Orange/FL.png","url":{"geometry":"https://www.gdacs.org/gdacsapi/api/polygons/getgeometry?eventtype=FL&eventid=1103798&episodeid=1","report":"https://www.gdacs.org/report.aspx?eventid=1103798&episodeid=1&eventtype=FL","details":"https://www.gdacs.org/gdacsapi/api/events/geteventdata?eventtype=FL&eventid=1103798"},"alertlevel":"Orange","alertscore":2,"episodealertlevel":"Orange","episodealertscore":1.5,"istemporary":"false","iscurrent":"false","country":"Ethiopia","fromdate":"2026-03-09T01:00:00","todate":"2026-03-11T01:00:00","datemodified":"2026-03-18T23:57:06","iso3":"ETH","source":"GLOFAS","sourceid":"","polygonlabel":"Centroid","Class":"Point_Centroid","affectedcountries":[{"iso2":"ET","iso3":"ETH","countryname":"Ethiopia"}],"severitydata":{"severity":0,"severitytext":"Magnitude 0 ","severityunit":""}}},{"type":"Feature","bbox":[28.7061945,-0.5645647,28.7061945,-0.5645647],"geometry":{"type":"Point","coordinates":[28.7061945,-0.5645647]},"properties":{"eventtype":"FL","eventid":1103784,"episodeid":6,"eventname":"","glide":"","name":"Flood in Democratic Republic of Congo","description":"Flood in Democratic Republic of Congo","htmldescription":"Orange Flood in Democratic Republic of Congo from: 11 Feb 2026 01 to: 05 Mar 2026 01.","icon":"https://www.gdacs.org/images/gdacs_icons/maps/Green/FL.png","iconoverall":"https://www.gdacs.org/images/gdacs_icons/maps/Orange/FL.png","url":{"geometry":"https://www.gdacs.org/gdacsapi/api/polygons/getgeometry?eventtype=FL&eventid=1103784&episodeid=6","report":"https://www.gdacs.org/report.aspx?eventid=1103784&episodeid=6&eventtype=FL","details":"https://www.gdacs.org/gdacsapi/api/events/geteventdata?eventtype=FL&eventid=1103784"},"alertlevel":"Orange","alertscore":2,"episodealertlevel":"Green","episodealertscore":0.5,"istemporary":"false","iscurrent":"false","country":"Democratic Republic of Congo","fromdate":"2026-02-11T01:00:00","todate":"2026-03-05T01:00:00","datemodified":"2026-04-07T09:00:59","iso3":"COD","source":"GLOFAS","sourceid":"","polygonlabel":"Centroid","Class":"Point_Centroid","affectedcountries":[{"iso2":"CD","iso3":"COD","countryname":"Democratic Republic of Congo"}],"severitydata":{"severity":0,"severitytext":"Magnitude 0 ","severityunit":""}}},{"type":"Feature","bbox":[34.738304,-20.1561586,34.738304,-20.1561586],"geometry":{"type":"Point","coordinates":[34.738304,-20.1561586]},"properties":{"eventtype":"FL","eventid":1103694,"episodeid":1,"eventname":"","glide":"FL-2025-000228-MOZ","name":"Flood in Mozambique","description":"Flood in Mozambique","htmldescription":"Orange Flood in Mozambique from: 22 Dec 2025 01 to: 26 Jan 2026 01.","icon":"https://www.gdacs.org/images/gdacs_icons/maps/Orange/FL.png","iconoverall":"https://www.gdacs.org/images/gdacs_icons/maps/Orange/FL.png","url":{"geometry":"https://www.gdacs.org/gdacsapi/api/polygons/getgeometry?eventtype=FL&eventid=1103694&episodeid=1","report":"https://www.gdacs.org/report.aspx?eventid=1103694&episodeid=1&eventtype=FL","details":"https://www.gdacs.org/gdacsapi/api/events/geteventdata?eventtype=FL&eventid=1103694"},"alertlevel":"Orange","alertscore":2,"episodealertlevel":"Orange","episodealertscore":1.5,"istemporary":"false","iscurrent":"false","country":"Mozambique","fromdate":"2025-12-22T01:00:00","todate":"2026-01-26T01:00:00","datemodified":"2026-02-20T14:05:16","iso3":"MOZ","source":"GLOFAS","sourceid":"","polygonlabel":"Centroid","Class":"Point_Centroid","affectedcountries":[{"iso2":"MZ","iso3":"MOZ","countryname":"Mozambique"}],"severitydata":{"severity":0,"severitytext":"Magnitude 0 ","severityunit":""}}},{"type":"Feature","bbox":[29.3959199,-23.4735288,29.3959199,-23.4735288],"geometry":{"type":"Point","coordinates":[29.3959199,-23.4735288]},"properties":{"eventtype":"FL","eventid":1103735,"episodeid":1,"eventname":"","glide":"","name":"Flood in Mozambique, South Africa, Zimbabwe","description":"Flood in Mozambique, South Africa, Zimbabwe","htmldescription":"Orange Flood in Mozambique, South Africa, Zimbabwe from: 19 Jan 2026 12 to: 19 Jan 2026 12.","icon":"https://www.gdacs.org/images/gdacs_icons/maps/Orange/FL.png","iconoverall":"https://www.gdacs.org/images/gdacs_icons/maps/Orange/FL.png","url":{"geometry":"https://www.gdacs.org/gdacsapi/api/polygons/getgeometry?eventtype=FL&eventid=1103735&episodeid=1","report":"https://www.gdacs.org/report.aspx?eventid=1103735&episodeid=1&eventtype=FL","details":"https://www.gdacs.org/gdacsapi/api/events/geteventdata?eventtype=FL&eventid=1103735"},"alertlevel":"Orange","alertscore":2,"episodealertlevel":"Orange","episodealertscore":1.5,"istemporary":"false","iscurrent":"false","country":"Mozambique, South Africa, Zimbabwe","fromdate":"2026-01-19T12:00:00","todate":"2026-01-19T12:00:00","datemodified":"2026-01-27T10:16:29","iso3":"MOZ","source":"GLOFAS","sourceid":"","polygonlabel":"Centroid","Class":"Point_Centroid","affectedcountries":[{"iso2":"MZ","iso3":"MOZ","countryname":"Mozambique"},{"iso2":"ZA","iso3":"ZAF","countryname":"South Africa"},{"iso2":"ZW","iso3":"ZWE","countryname":"Zimbabwe"}],"severitydata":{"severity":0,"severitytext":"Magnitude 0 ","severityunit":""}}},{"type":"Feature","bbox":[117.146169,-8.7892855,117.146169,-8.7892855],"geometry":{"type":"Point","coordinates":[117.146169,-8.7892855]},"properties":{"eventtype":"FL","eventid":1103633,"episodeid":19,"eventname":"","glide":"FL-2025-000217-IDN","name":"Flood in Indonesia","description":"Flood in Indonesia","htmldescription":"Orange Flood in Indonesia from: 17 Nov 2025 01 to: 03 Jan 2026 01.","icon":"https://www.gdacs.org/images/gdacs_icons/maps/Green/FL.png","iconoverall":"https://www.gdacs.org/images/gdacs_icons/maps/Orange/FL.png","url":{"geometry":"https://www.gdacs.org/gdacsapi/api/polygons/getgeometry?eventtype=FL&eventid=1103633&episodeid=19","report":"https://www.gdacs.org/report.aspx?eventid=1103633&episodeid=19&eventtype=FL","details":"https://www.gdacs.org/gdacsapi/api/events/geteventdata?eventtype=FL&eventid=1103633"},"alertlevel":"Orange","alertscore":2,"episodealertlevel":"Green","episodealertscore":0.5,"istemporary":"false","iscurrent":"false","country":"Indonesia","fromdate":"2025-11-17T01:00:00","todate":"2026-01-03T01:00:00","datemodified":"2026-02-11T12:10:14.497","iso3":"IDN","source":"GLOFAS","sourceid":"","polygonlabel":"Centroid","Class":"Point_Centroid","affectedcountries":[{"iso2":"ID","iso3":"IDN","countryname":"Indonesia"}],"severitydata":{"severity":0,"severitytext":"Magnitude 0 ","severityunit":""}}},{"type":"Feature","bbox":[100.5683792,13.8284014,100.5683792,13.8284014],"geometry":{"type":"Point","coordinates":[100.5683792,13.8284014]},"properties":{"eventtype":"FL","eventid":1103663,"episodeid":1,"eventname":"","glide":"","name":"Flood in Malaysia, Thailand","description":"Flood in Malaysia, Thailand","htmldescription":"Orange Flood in Malaysia, Thailand from: 12 Dec 2025 13 to: 12 Dec 2025 13.","icon":"https://www.gdacs.org/images/gdacs_icons/maps/Orange/FL.png","iconoverall":"https://www.gdacs.org/images/gdacs_icons/maps/Orange/FL.png","url":{"geometry":"https://www.gdacs.org/gdacsapi/api/polygons/getgeometry?eventtype=FL&eventid=1103663&episodeid=1","report":"https://www.gdacs.org/report.aspx?eventid=1103663&episodeid=1&eventtype=FL","details":"https://www.gdacs.org/gdacsapi/api/events/geteventdata?eventtype=FL&eventid=1103663"},"alertlevel":"Orange","alertscore":2,"episodealertlevel":"Orange","episodealertscore":1.5,"istemporary":"false","iscurrent":"false","country":"Malaysia, Thailand","fromdate":"2025-12-12T13:00:00","todate":"2025-12-12T13:00:00","datemodified":"2025-12-13T06:45:16","iso3":"MYS","source":"GLOFAS","sourceid":"","polygonlabel":"Centroid","Class":"Point_Centroid","affectedcountries":[{"iso2":"MY","iso3":"MYS","countryname":"Malaysia"},{"iso2":"TH","iso3":"THA","countryname":"Thailand"}],"severitydata":{"severity":0,"severitytext":"Magnitude 0 ","severityunit":""}}},{"type":"Feature","bbox":[100.5683792,13.8284014,100.5683792,13.8284014],"geometry":{"type":"Point","coordinates":[100.5683792,13.8284014]},"properties":{"eventtype":"FL","eventid":1103646,"episodeid":4,"eventname":"","glide":"","name":"Flood in Indonesia, Malaysia, Thailand","description":"Flood in Indonesia, Malaysia, Thailand","htmldescription":"Red Flood in Indonesia, Malaysia, Thailand from: 03 Dec 2025 01 to: 06 Dec 2025 01.","icon":"https://www.gdacs.org/images/gdacs_icons/maps/Red/FL.png","iconoverall":"https://www.gdacs.org/images/gdacs_icons/maps/Red/FL.png","url":{"geometry":"https://www.gdacs.org/gdacsapi/api/polygons/getgeometry?eventtype=FL&eventid=1103646&episodeid=4","report":"https://www.gdacs.org/report.aspx?eventid=1103646&episodeid=4&eventtype=FL","details":"https://www.gdacs.org/gdacsapi/api/events/geteventdata?eventtype=FL&eventid=1103646"},"alertlevel":"Red","alertscore":3,"episodealertlevel":"Red","episodealertscore":2.5,"istemporary":"false","iscurrent":"false","country":"Indonesia, Malaysia, Thailand","fromdate":"2025-12-03T01:00:00","todate":"2025-12-06T01:00:00","datemodified":"2025-12-10T10:21:22","iso3":"IDN","source":"GLOFAS","sourceid":"","polygonlabel":"Centroid","Class":"Point_Centroid","affectedcountries":[{"iso2":"ID","iso3":"IDN","countryname":"Indonesia"},{"iso2":"MY","iso3":"MYS","countryname":"Malaysia"},{"iso2":"TH","iso3":"THA","countryname":"Thailand"}],"severitydata":{"severity":0,"severitytext":"Magnitude 0 ","severityunit":""}}},{"type":"Feature","bbox":[80.6400801063068,7.214308,80.6400801063068,7.214308],"geometry":{"type":"Point","coordinates":[80.6400801063068,7.214308]},"properties":{"eventtype":"FL","eventid":1103640,"episodeid":2,"eventname":"","glide":"FL-2025-000216-LKA","name":"Flood in Sri Lanka","description":"Flood in Sri Lanka","htmldescription":"Orange Flood in Sri Lanka from: 28 Nov 2025 01 to: 05 Dec 2025 13.","icon":"https://www.gdacs.org/images/gdacs_icons/maps/Orange/FL.png","iconoverall":"https://www.gdacs.org/images/gdacs_icons/maps/Orange/FL.png","url":{"geometry":"https://www.gdacs.org/gdacsapi/api/polygons/getgeometry?eventtype=FL&eventid=1103640&episodeid=2","report":"https://www.gdacs.org/report.aspx?eventid=1103640&episodeid=2&eventtype=FL","details":"https://www.gdacs.org/gdacsapi/api/events/geteventdata?eventtype=FL&eventid=1103640"},"alertlevel":"Orange","alertscore":2,"episodealertlevel":"Orange","episodealertscore":1.5,"istemporary":"false","iscurrent":"false","country":"Sri Lanka","fromdate":"2025-11-28T01:00:00","todate":"2025-12-05T13:00:00","datemodified":"2026-02-11T12:10:14.497","iso3":"LKA","source":"GLOFAS","sourceid":"","polygonlabel":"Centroid","Class":"Point_Centroid","affectedcountries":[{"iso2":"LK","iso3":"LKA","countryname":"Sri Lanka"}],"severitydata":{"severity":0,"severitytext":"Magnitude 0 ","severityunit":""}}},{"type":"Feature","bbox":[101.1409694,6.3344846,101.1409694,6.3344846],"geometry":{"type":"Point","coordinates":[101.1409694,6.3344846]},"properties":{"eventtype":"FL","eventid":1103621,"episodeid":2,"eventname":"","glide":"FL-2025-000210-THA","name":"Flood in Thailand","description":"Flood in Thailand","htmldescription":"Orange Flood in Thailand from: 17 Nov 2025 01 to: 01 Dec 2025 14.","icon":"https://www.gdacs.org/images/gdacs_icons/maps/Orange/FL.png","iconoverall":"https://www.gdacs.org/images/gdacs_icons/maps/Orange/FL.png","url":{"geometry":"https://www.gdacs.org/gdacsapi/api/polygons/getgeometry?eventtype=FL&eventid=1103621&episodeid=2","report":"https://www.gdacs.org/report.aspx?eventid=1103621&episodeid=2&eventtype=FL","details":"https://www.gdacs.org/gdacsapi/api/events/geteventdata?eventtype=FL&eventid=1103621"},"alertlevel":"Orange","alertscore":2,"episodealertlevel":"Orange","episodealertscore":1.5,"istemporary":"false","iscurrent":"false","country":"Thailand","fromdate":"2025-11-17T01:00:00","todate":"2025-12-01T14:00:00","datemodified":"2025-12-03T00:30:27","iso3":"THA","source":"GLOFAS","sourceid":"","polygonlabel":"Centroid","Class":"Point_Centroid","affectedcountries":[{"iso2":"TH","iso3":"THA","countryname":"Thailand"}],"severitydata":{"severity":0,"severitytext":"Magnitude 0 ","severityunit":""}}},{"type":"Feature","bbox":[-76.4272225,20.3700559,-76.4272225,20.3700559],"geometry":{"type":"Point","coordinates":[-76.4272225,20.3700559]},"properties":{"eventtype":"FL","eventid":1103585,"episodeid":1,"eventname":"","glide":"FL-2025-000201-CUB","name":"Flood in Cuba","description":"Flood in Cuba","htmldescription":"Orange Flood in Cuba from: 28 Oct 2025 01 to: 30 Oct 2025 01.","icon":"https://www.gdacs.org/images/gdacs_icons/maps/Orange/FL.png","iconoverall":"https://www.gdacs.org/images/gdacs_icons/maps/Orange/FL.png","url":{"geometry":"https://www.gdacs.org/gdacsapi/api/polygons/getgeometry?eventtype=FL&eventid=1103585&episodeid=1","report":"https://www.gdacs.org/report.aspx?eventid=1103585&episodeid=1&eventtype=FL","details":"https://www.gdacs.org/gdacsapi/api/events/geteventdata?eventtype=FL&eventid=1103585"},"alertlevel":"Orange","alertscore":2,"episodealertlevel":"Orange","episodealertscore":1.5,"istemporary":"false","iscurrent":"false","country":"Cuba","fromdate":"2025-10-28T01:00:00","todate":"2025-10-30T01:00:00","datemodified":"2025-10-30T14:00:56","iso3":"CUB","source":"GLOFAS","sourceid":"","polygonlabel":"Centroid","Class":"Point_Centroid","affectedcountries":[{"iso2":"CU","iso3":"CUB","countryname":"Cuba"}],"severitydata":{"severity":0,"severitytext":"Magnitude 0 ","severityunit":""}}},{"type":"Feature","bbox":[5.6574918,13.7542229,5.6574918,13.7542229],"geometry":{"type":"Point","coordinates":[5.6574918,13.7542229]},"properties":{"eventtype":"FL","eventid":1103479,"episodeid":18,"eventname":"","glide":"","name":"Flood in Nigeria","description":"Flood in Nigeria","htmldescription":"Orange Flood in Nigeria from: 31 Aug 2025 01 to: 10 Oct 2025 01.","icon":"https://www.gdacs.org/images/gdacs_icons/maps/Green/FL.png","iconoverall":"https://www.gdacs.org/images/gdacs_icons/maps/Orange/FL.png","url":{"geometry":"https://www.gdacs.org/gdacsapi/api/polygons/getgeometry?eventtype=FL&eventid=1103479&episodeid=18","report":"https://www.gdacs.org/report.aspx?eventid=1103479&episodeid=18&eventtype=FL","details":"https://www.gdacs.org/gdacsapi/api/events/geteventdata?eventtype=FL&eventid=1103479"},"alertlevel":"Orange","alertscore":2,"episodealertlevel":"Green","episodealertscore":0.5,"istemporary":"false","iscurrent":"false","country":"Nigeria","fromdate":"2025-08-31T01:00:00","todate":"2025-10-10T01:00:00","datemodified":"2025-10-18T05:06:30","iso3":"NGA","source":"GLOFAS","sourceid":"","polygonlabel":"Centroid","Class":"Point_Centroid","affectedcountries":[{"iso2":"NG","iso3":"NGA","countryname":"Nigeria"}],"severitydata":{"severity":0,"severitytext":"Magnitude 0 ","severityunit":""}}},{"type":"Feature","bbox":[76.6203330691771,31.3677822,76.6203330691771,31.3677822],"geometry":{"type":"Point","coordinates":[76.6203330691771,31.3677822]},"properties":{"eventtype":"FL","eventid":1103434,"episodeid":26,"eventname":"","glide":"FL-2025-000171-IND","name":"Flood in India","description":"Flood in India","htmldescription":"Orange Flood in India from: 16 Aug 2025 01 to: 09 Oct 2025 01.","icon":"https://www.gdacs.org/images/gdacs_icons/maps/Green/FL.png","iconoverall":"https://www.gdacs.org/images/gdacs_icons/maps/Orange/FL.png","url":{"geometry":"https://www.gdacs.org/gdacsapi/api/polygons/getgeometry?eventtype=FL&eventid=1103434&episodeid=26","report":"https://www.gdacs.org/report.aspx?eventid=1103434&episodeid=26&eventtype=FL","details":"https://www.gdacs.org/gdacsapi/api/events/geteventdata?eventtype=FL&eventid=1103434"},"alertlevel":"Orange","alertscore":2,"episodealertlevel":"Green","episodealertscore":0.5,"istemporary":"false","iscurrent":"false","country":"India","fromdate":"2025-08-16T01:00:00","todate":"2025-10-09T01:00:00","datemodified":"2025-10-09T21:45:03","iso3":"IND","source":"GLOFAS","sourceid":"","polygonlabel":"Centroid","Class":"Point_Centroid","affectedcountries":[{"iso2":"IN","iso3":"IND","countryname":"India"}],"severitydata":{"severity":0,"severitytext":"Magnitude 0 ","severityunit":""}}},{"type":"Feature","bbox":[87.924784,26.9399704,87.924784,26.9399704],"geometry":{"type":"Point","coordinates":[87.924784,26.9399704]},"properties":{"eventtype":"FL","eventid":1103540,"episodeid":2,"eventname":"","glide":"FL-2025-000184-NPL","name":"Flood in Nepal","description":"Flood in Nepal","htmldescription":"Orange Flood in Nepal from: 03 Oct 2025 00 to: 06 Oct 2025 14.","icon":"https://www.gdacs.org/images/gdacs_icons/maps/Orange/FL.png","iconoverall":"https://www.gdacs.org/images/gdacs_icons/maps/Orange/FL.png","url":{"geometry":"https://www.gdacs.org/gdacsapi/api/polygons/getgeometry?eventtype=FL&eventid=1103540&episodeid=2","report":"https://www.gdacs.org/report.aspx?eventid=1103540&episodeid=2&eventtype=FL","details":"https://www.gdacs.org/gdacsapi/api/events/geteventdata?eventtype=FL&eventid=1103540"},"alertlevel":"Orange","alertscore":2,"episodealertlevel":"Orange","episodealertscore":1.5,"istemporary":"false","iscurrent":"false","country":"Nepal","fromdate":"2025-10-03T00:00:00","todate":"2025-10-06T14:00:00","datemodified":"2025-10-11T23:57:16","iso3":"NPL","source":"GLOFAS","sourceid":"","polygonlabel":"Centroid","Class":"Point_Centroid","affectedcountries":[{"iso2":"NP","iso3":"NPL","countryname":"Nepal"}],"severitydata":{"severity":0,"severitytext":"Magnitude 0 ","severityunit":""}}},{"type":"Feature","bbox":[44.916667,12.833333,44.916667,12.833333],"geometry":{"type":"Point","coordinates":[44.916667,12.833333]},"properties":{"eventtype":"FL","eventid":1103504,"episodeid":2,"eventname":"","glide":"FL-2025-000177-YEM","name":"Flood in Yemen","description":"Flood in Yemen","htmldescription":"Orange Flood in Yemen from: 16 Sep 2025 01 to: 25 Sep 2025 14.","icon":"https://www.gdacs.org/images/gdacs_icons/maps/Orange/FL.png","iconoverall":"https://www.gdacs.org/images/gdacs_icons/maps/Orange/FL.png","url":{"geometry":"https://www.gdacs.org/gdacsapi/api/polygons/getgeometry?eventtype=FL&eventid=1103504&episodeid=2","report":"https://www.gdacs.org/report.aspx?eventid=1103504&episodeid=2&eventtype=FL","details":"https://www.gdacs.org/gdacsapi/api/events/geteventdata?eventtype=FL&eventid=1103504"},"alertlevel":"Orange","alertscore":2,"episodealertlevel":"Orange","episodealertscore":1.5,"istemporary":"false","iscurrent":"false","country":"Yemen","fromdate":"2025-09-16T01:00:00","todate":"2025-09-25T14:00:00","datemodified":"2025-09-25T11:03:04","iso3":"YEM","source":"GLOFAS","sourceid":"","polygonlabel":"Centroid","Class":"Point_Centroid","affectedcountries":[{"iso2":"YE","iso3":"YEM","countryname":"Yemen"}],"severitydata":{"severity":0,"severitytext":"Magnitude 0 ","severityunit":""}}},{"type":"Feature","bbox":[114.1849161,22.350627,114.1849161,22.350627],"geometry":{"type":"Point","coordinates":[114.1849161,22.350627]},"properties":{"eventtype":"FL","eventid":1103514,"episodeid":2,"eventname":"","glide":"FL-2025-000178-CHN","name":"Flood in China","description":"Flood in China","htmldescription":"Red Flood in China from: 23 Sep 2025 01 to: 25 Sep 2025 01.","icon":"https://www.gdacs.org/images/gdacs_icons/maps/Red/FL.png","iconoverall":"https://www.gdacs.org/images/gdacs_icons/maps/Red/FL.png","url":{"geometry":"https://www.gdacs.org/gdacsapi/api/polygons/getgeometry?eventtype=FL&eventid=1103514&episodeid=2","report":"https://www.gdacs.org/report.aspx?eventid=1103514&episodeid=2&eventtype=FL","details":"https://www.gdacs.org/gdacsapi/api/events/geteventdata?eventtype=FL&eventid=1103514"},"alertlevel":"Red","alertscore":3,"episodealertlevel":"Red","episodealertscore":2.5,"istemporary":"false","iscurrent":"false","country":"China","fromdate":"2025-09-23T01:00:00","todate":"2025-09-25T01:00:00","datemodified":"2025-09-26T13:02:48","iso3":"CHN","source":"GLOFAS","sourceid":"","polygonlabel":"Centroid","Class":"Point_Centroid","affectedcountries":[{"iso2":"CN","iso3":"CHN","countryname":"China"}],"severitydata":{"severity":0,"severitytext":"Magnitude 0 ","severityunit":""}}},{"type":"Feature","bbox":[-117.0244313,34.8986215,-117.0244313,34.8986215],"geometry":{"type":"Point","coordinates":[-117.0244313,34.8986215]},"properties":{"eventtype":"FL","eventid":1103339,"episodeid":33,"eventname":"","glide":"FL-2025-000106-USA","name":"Flood in United States","description":"Flood in United States","htmldescription":"Orange Flood in United States from: 15 Jun 2025 01 to: 21 Sep 2025 01.","icon":"https://www.gdacs.org/images/gdacs_icons/maps/Green/FL.png","iconoverall":"https://www.gdacs.org/images/gdacs_icons/maps/Orange/FL.png","url":{"geometry":"https://www.gdacs.org/gdacsapi/api/polygons/getgeometry?eventtype=FL&eventid=1103339&episodeid=33","report":"https://www.gdacs.org/report.aspx?eventid=1103339&episodeid=33&eventtype=FL","details":"https://www.gdacs.org/gdacsapi/api/events/geteventdata?eventtype=FL&eventid=1103339"},"alertlevel":"Orange","alertscore":2,"episodealertlevel":"Green","episodealertscore":0.5,"istemporary":"false","iscurrent":"false","country":"United States","fromdate":"2025-06-15T01:00:00","todate":"2025-09-21T01:00:00","datemodified":"2025-10-08T14:23:01","iso3":"USA","source":"GLOFAS","sourceid":"","polygonlabel":"Centroid","Class":"Point_Centroid","affectedcountries":[{"iso2":"US","iso3":"USA","countryname":"United States"}],"severitydata":{"severity":0,"severitytext":"Magnitude 0 ","severityunit":""}}},{"type":"Feature","bbox":[33,9,33,9],"geometry":{"type":"Point","coordinates":[33,9]},"properties":{"eventtype":"FL","eventid":1103506,"episodeid":1,"eventname":"","glide":"FL-2025-000168-SSD","name":"Flood in South Sudan","description":"Flood in South Sudan","htmldescription":"Orange Flood in South Sudan from: 15 Jul 2025 01 to: 19 Sep 2025 01.","icon":"https://www.gdacs.org/images/gdacs_icons/maps/Orange/FL.png","iconoverall":"https://www.gdacs.org/images/gdacs_icons/maps/Orange/FL.png","url":{"geometry":"https://www.gdacs.org/gdacsapi/api/polygons/getgeometry?eventtype=FL&eventid=1103506&episodeid=1","report":"https://www.gdacs.org/report.aspx?eventid=1103506&episodeid=1&eventtype=FL","details":"https://www.gdacs.org/gdacsapi/api/events/geteventdata?eventtype=FL&eventid=1103506"},"alertlevel":"Orange","alertscore":2,"episodealertlevel":"Orange","episodealertscore":1.5,"istemporary":"false","iscurrent":"false","country":"South Sudan","fromdate":"2025-07-15T01:00:00","todate":"2025-09-19T01:00:00","datemodified":"2025-09-19T15:02:35","iso3":"SSD","source":"GLOFAS","sourceid":"","polygonlabel":"Centroid","Class":"Point_Centroid","affectedcountries":[{"iso2":"SS","iso3":"SSD","countryname":"South Sudan"}],"severitydata":{"severity":0,"severitytext":"Magnitude 0 ","severityunit":""}}},{"type":"Feature","bbox":[71.4805341599303,34.0019893,71.4805341599303,34.0019893],"geometry":{"type":"Point","coordinates":[71.4805341599303,34.0019893]},"properties":{"eventtype":"FL","eventid":1103435,"episodeid":4,"eventname":"","glide":"FL-2025-000139-PAK","name":"Flood in Pakistan","description":"Flood in Pakistan","htmldescription":"Orange Flood in Pakistan from: 14 Aug 2025 01 to: 26 Aug 2025 01.","icon":"https://www.gdacs.org/images/gdacs_icons/maps/Green/FL.png","iconoverall":"https://www.gdacs.org/images/gdacs_icons/maps/Orange/FL.png","url":{"geometry":"https://www.gdacs.org/gdacsapi/api/polygons/getgeometry?eventtype=FL&eventid=1103435&episodeid=4","report":"https://www.gdacs.org/report.aspx?eventid=1103435&episodeid=4&eventtype=FL","details":"https://www.gdacs.org/gdacsapi/api/events/geteventdata?eventtype=FL&eventid=1103435"},"alertlevel":"Orange","alertscore":2,"episodealertlevel":"Green","episodealertscore":0.5,"istemporary":"false","iscurrent":"false","country":"Pakistan","fromdate":"2025-08-14T01:00:00","todate":"2025-08-26T01:00:00","datemodified":"2026-02-11T12:10:14.497","iso3":"PAK","source":"GLOFAS","sourceid":"","polygonlabel":"Centroid","Class":"Point_Centroid","affectedcountries":[{"iso2":"PK","iso3":"PAK","countryname":"Pakistan"}],"severitydata":{"severity":0,"severitytext":"Magnitude 0 ","severityunit":""}}},{"type":"Feature","bbox":[107.3819572,40.7419202,107.3819572,40.7419202],"geometry":{"type":"Point","coordinates":[107.3819572,40.7419202]},"properties":{"eventtype":"FL","eventid":1103277,"episodeid":34,"eventname":"","glide":"FL-2025-000066-VNM","name":"Flood in China","description":"Flood in China","htmldescription":"Orange Flood in China from: 16 May 2025 01 to: 18 Aug 2025 13.","icon":"https://www.gdacs.org/images/gdacs_icons/maps/Green/FL.png","iconoverall":"https://www.gdacs.org/images/gdacs_icons/maps/Orange/FL.png","url":{"geometry":"https://www.gdacs.org/gdacsapi/api/polygons/getgeometry?eventtype=FL&eventid=1103277&episodeid=34","report":"https://www.gdacs.org/report.aspx?eventid=1103277&episodeid=34&eventtype=FL","details":"https://www.gdacs.org/gdacsapi/api/events/geteventdata?eventtype=FL&eventid=1103277"},"alertlevel":"Orange","alertscore":2,"episodealertlevel":"Green","episodealertscore":0.5,"istemporary":"false","iscurrent":"false","country":"China","fromdate":"2025-05-16T01:00:00","todate":"2025-08-18T13:00:00","datemodified":"2025-08-19T08:30:11","iso3":"CHN","source":"GLOFAS","sourceid":"","polygonlabel":"Centroid","Class":"Point_Centroid","affectedcountries":[{"iso2":"CN","iso3":"CHN","countryname":"China"}],"severitydata":{"severity":0,"severitytext":"Magnitude 0 ","severityunit":""}}},{"type":"Feature","bbox":[-25.1723049,17.0555286,-25.1723049,17.0555286],"geometry":{"type":"Point","coordinates":[-25.1723049,17.0555286]},"properties":{"eventtype":"FL","eventid":1103461,"episodeid":1,"eventname":"","glide":"","name":"Flood in Cape Verde","description":"Flood in Cape Verde","htmldescription":"Orange Flood in Cape Verde from: 10 Aug 2025 01 to: 12 Aug 2025 01.","icon":"https://www.gdacs.org/images/gdacs_icons/maps/Orange/FL.png","iconoverall":"https://www.gdacs.org/images/gdacs_icons/maps/Orange/FL.png","url":{"geometry":"https://www.gdacs.org/gdacsapi/api/polygons/getgeometry?eventtype=FL&eventid=1103461&episodeid=1","report":"https://www.gdacs.org/report.aspx?eventid=1103461&episodeid=1&eventtype=FL","details":"https://www.gdacs.org/gdacsapi/api/events/geteventdata?eventtype=FL&eventid=1103461"},"alertlevel":"Orange","alertscore":2,"episodealertlevel":"Orange","episodealertscore":1.5,"istemporary":"false","iscurrent":"false","country":"Cape Verde","fromdate":"2025-08-10T01:00:00","todate":"2025-08-12T01:00:00","datemodified":"2025-08-25T08:15:50","iso3":"CPV","source":"GLOFAS","sourceid":"","polygonlabel":"Centroid","Class":"Point_Centroid","affectedcountries":[{"iso2":"CV","iso3":"CPV","countryname":"Cape Verde"}],"severitydata":{"severity":0,"severitytext":"Magnitude 0 ","severityunit":""}}},{"type":"Feature","bbox":[120.739674572193,15.5919971,120.739674572193,15.5919971],"geometry":{"type":"Point","coordinates":[120.739674572193,15.5919971]},"properties":{"eventtype":"FL","eventid":1103404,"episodeid":1,"eventname":"","glide":"","name":"Flood in Philippines, Vietnam","description":"Flood in Philippines, Vietnam","htmldescription":"Orange Flood in Philippines, Vietnam from: 24 Jul 2025 14 to: 24 Jul 2025 14.","icon":"https://www.gdacs.org/images/gdacs_icons/maps/Orange/FL.png","iconoverall":"https://www.gdacs.org/images/gdacs_icons/maps/Orange/FL.png","url":{"geometry":"https://www.gdacs.org/gdacsapi/api/polygons/getgeometry?eventtype=FL&eventid=1103404&episodeid=1","report":"https://www.gdacs.org/report.aspx?eventid=1103404&episodeid=1&eventtype=FL","details":"https://www.gdacs.org/gdacsapi/api/events/geteventdata?eventtype=FL&eventid=1103404"},"alertlevel":"Orange","alertscore":2,"episodealertlevel":"Orange","episodealertscore":1.5,"istemporary":"false","iscurrent":"false","country":"Philippines, Vietnam","fromdate":"2025-07-24T14:00:00","todate":"2025-07-24T14:00:00","datemodified":"2025-07-25T05:22:35","iso3":"PHL","source":"GLOFAS","sourceid":"","polygonlabel":"Centroid","Class":"Point_Centroid","affectedcountries":[{"iso2":"PH","iso3":"PHL","countryname":"Philippines"},{"iso2":"VN","iso3":"VNM","countryname":"Vietnam"}],"severitydata":{"severity":0,"severitytext":"Magnitude 0 ","severityunit":""}}},{"type":"Feature","bbox":[124.656805038131,8.4860705,124.656805038131,8.4860705],"geometry":{"type":"Point","coordinates":[124.656805038131,8.4860705]},"properties":{"eventtype":"FL","eventid":1103385,"episodeid":3,"eventname":"","glide":"","name":"Flood in Philippines","description":"Flood in Philippines","htmldescription":"Orange Flood in Philippines from: 12 Jul 2025 01 to: 23 Jul 2025 13.","icon":"https://www.gdacs.org/images/gdacs_icons/maps/Orange/FL.png","iconoverall":"https://www.gdacs.org/images/gdacs_icons/maps/Orange/FL.png","url":{"geometry":"https://www.gdacs.org/gdacsapi/api/polygons/getgeometry?eventtype=FL&eventid=1103385&episodeid=3","report":"https://www.gdacs.org/report.aspx?eventid=1103385&episodeid=3&eventtype=FL","details":"https://www.gdacs.org/gdacsapi/api/events/geteventdata?eventtype=FL&eventid=1103385"},"alertlevel":"Orange","alertscore":2,"episodealertlevel":"Orange","episodealertscore":1.5,"istemporary":"false","iscurrent":"false","country":"Philippines","fromdate":"2025-07-12T01:00:00","todate":"2025-07-23T13:00:00","datemodified":"2025-07-24T06:02:34","iso3":"PHL","source":"GLOFAS","sourceid":"","polygonlabel":"Centroid","Class":"Point_Centroid","affectedcountries":[{"iso2":"PH","iso3":"PHL","countryname":"Philippines"}],"severitydata":{"severity":0,"severitytext":"Magnitude 0 ","severityunit":""}}},{"type":"Feature","bbox":[71.2678805,33.712802,71.2678805,33.712802],"geometry":{"type":"Point","coordinates":[71.2678805,33.712802]},"properties":{"eventtype":"FL","eventid":1103389,"episodeid":3,"eventname":"","glide":"FL-2025-000114-PAK","name":"Flood in Pakistan","description":"Flood in Pakistan","htmldescription":"Orange Flood in Pakistan from: 14 Jul 2025 01 to: 17 Jul 2025 14.","icon":"https://www.gdacs.org/images/gdacs_icons/maps/Green/FL.png","iconoverall":"https://www.gdacs.org/images/gdacs_icons/maps/Orange/FL.png","url":{"geometry":"https://www.gdacs.org/gdacsapi/api/polygons/getgeometry?eventtype=FL&eventid=1103389&episodeid=3","report":"https://www.gdacs.org/report.aspx?eventid=1103389&episodeid=3&eventtype=FL","details":"https://www.gdacs.org/gdacsapi/api/events/geteventdata?eventtype=FL&eventid=1103389"},"alertlevel":"Orange","alertscore":2,"episodealertlevel":"Green","episodealertscore":0.5,"istemporary":"false","iscurrent":"false","country":"Pakistan","fromdate":"2025-07-14T01:00:00","todate":"2025-07-17T14:00:00","datemodified":"2025-07-19T06:45:00","iso3":"PAK","source":"GLOFAS","sourceid":"","polygonlabel":"Centroid","Class":"Point_Centroid","affectedcountries":[{"iso2":"PK","iso3":"PAK","countryname":"Pakistan"}],"severitydata":{"severity":0,"severitytext":"Magnitude 0 ","severityunit":""}}},{"type":"Feature","bbox":[18.029460944233,-0.7860696,18.029460944233,-0.7860696],"geometry":{"type":"Point","coordinates":[18.029460944233,-0.7860696]},"properties":{"eventtype":"FL","eventid":1103329,"episodeid":3,"eventname":"","glide":"FL-2025-000096-COD","name":"Flood in Democratic Republic of Congo","description":"Flood in Democratic Republic of Congo","htmldescription":"Orange Flood in Democratic Republic of Congo from: 13 Jun 2025 01 to: 18 Jun 2025 12.","icon":"https://www.gdacs.org/images/gdacs_icons/maps/Green/FL.png","iconoverall":"https://www.gdacs.org/images/gdacs_icons/maps/Orange/FL.png","url":{"geometry":"https://www.gdacs.org/gdacsapi/api/polygons/getgeometry?eventtype=FL&eventid=1103329&episodeid=3","report":"https://www.gdacs.org/report.aspx?eventid=1103329&episodeid=3&eventtype=FL","details":"https://www.gdacs.org/gdacsapi/api/events/geteventdata?eventtype=FL&eventid=1103329"},"alertlevel":"Orange","alertscore":2,"episodealertlevel":"Green","episodealertscore":0.5,"istemporary":"false","iscurrent":"false","country":"Democratic Republic of Congo","fromdate":"2025-06-13T01:00:00","todate":"2025-06-18T12:00:00","datemodified":"2025-06-23T15:01:46","iso3":"COD","source":"GLOFAS","sourceid":"","polygonlabel":"Centroid","Class":"Point_Centroid","affectedcountries":[{"iso2":"CD","iso3":"COD","countryname":"Democratic Republic of Congo"}],"severitydata":{"severity":0,"severitytext":"Magnitude 0 ","severityunit":""}}},{"type":"Feature","bbox":[28.789145,-31.589075,28.789145,-31.589075],"geometry":{"type":"Point","coordinates":[28.789145,-31.589075]},"properties":{"eventtype":"FL","eventid":1103323,"episodeid":1,"eventname":"","glide":"FL-2025-000089-ZAF","name":"Flood in South Africa","description":"Flood in South Africa","htmldescription":"Orange Flood in South Africa from: 09 Jun 2025 01 to: 14 Jun 2025 01.","icon":"https://www.gdacs.org/images/gdacs_icons/maps/Orange/FL.png","iconoverall":"https://www.gdacs.org/images/gdacs_icons/maps/Orange/FL.png","url":{"geometry":"https://www.gdacs.org/gdacsapi/api/polygons/getgeometry?eventtype=FL&eventid=1103323&episodeid=1","report":"https://www.gdacs.org/report.aspx?eventid=1103323&episodeid=1&eventtype=FL","details":"https://www.gdacs.org/gdacsapi/api/events/geteventdata?eventtype=FL&eventid=1103323"},"alertlevel":"Orange","alertscore":2,"episodealertlevel":"Orange","episodealertscore":1.5,"istemporary":"false","iscurrent":"false","country":"South Africa","fromdate":"2025-06-09T01:00:00","todate":"2025-06-14T01:00:00","datemodified":"2025-06-19T09:01:50","iso3":"ZAF","source":"GLOFAS","sourceid":"","polygonlabel":"Centroid","Class":"Point_Centroid","affectedcountries":[{"iso2":"ZA","iso3":"ZAF","countryname":"South Africa"}],"severitydata":{"severity":0,"severitytext":"Magnitude 0 ","severityunit":""}}},{"type":"Feature","bbox":[5.0544281,9.2957202,5.0544281,9.2957202],"geometry":{"type":"Point","coordinates":[5.0544281,9.2957202]},"properties":{"eventtype":"FL","eventid":1103303,"episodeid":1,"eventname":"","glide":"FL-2025-000078-NGA","name":"Flood in Nigeria","description":"Flood in Nigeria","htmldescription":"Orange Flood in Nigeria from: 28 May 2025 01 to: 30 May 2025 01.","icon":"https://www.gdacs.org/images/gdacs_icons/maps/Orange/FL.png","iconoverall":"https://www.gdacs.org/images/gdacs_icons/maps/Orange/FL.png","url":{"geometry":"https://www.gdacs.org/gdacsapi/api/polygons/getgeometry?eventtype=FL&eventid=1103303&episodeid=1","report":"https://www.gdacs.org/report.aspx?eventid=1103303&episodeid=1&eventtype=FL","details":"https://www.gdacs.org/gdacsapi/api/events/geteventdata?eventtype=FL&eventid=1103303"},"alertlevel":"Orange","alertscore":2,"episodealertlevel":"Orange","episodealertscore":1.5,"istemporary":"false","iscurrent":"false","country":"Nigeria","fromdate":"2025-05-28T01:00:00","todate":"2025-05-30T01:00:00","datemodified":"2025-06-11T13:25:13","iso3":"NGA","source":"GLOFAS","sourceid":"","polygonlabel":"Centroid","Class":"Point_Centroid","affectedcountries":[{"iso2":"NG","iso3":"NGA","countryname":"Nigeria"}],"severitydata":{"severity":0,"severitytext":"Magnitude 0 ","severityunit":""}}},{"type":"Feature","bbox":[27.8705717,-3.2653155,27.8705717,-3.2653155],"geometry":{"type":"Point","coordinates":[27.8705717,-3.2653155]},"properties":{"eventtype":"FL","eventid":1103255,"episodeid":5,"eventname":"","glide":"FL-2025-000061-COD","name":"Flood in Democratic Republic of Congo","description":"Flood in Democratic Republic of Congo","htmldescription":"Orange Flood in Democratic Republic of Congo from: 01 May 2025 01 to: 14 May 2025 14.","icon":"https://www.gdacs.org/images/gdacs_icons/maps/Orange/FL.png","iconoverall":"https://www.gdacs.org/images/gdacs_icons/maps/Orange/FL.png","url":{"geometry":"https://www.gdacs.org/gdacsapi/api/polygons/getgeometry?eventtype=FL&eventid=1103255&episodeid=5","report":"https://www.gdacs.org/report.aspx?eventid=1103255&episodeid=5&eventtype=FL","details":"https://www.gdacs.org/gdacsapi/api/events/geteventdata?eventtype=FL&eventid=1103255"},"alertlevel":"Orange","alertscore":2,"episodealertlevel":"Orange","episodealertscore":1.5,"istemporary":"false","iscurrent":"false","country":"Democratic Republic of Congo","fromdate":"2025-05-01T01:00:00","todate":"2025-05-14T14:00:00","datemodified":"2025-05-15T05:44:49","iso3":"COD","source":"GLOFAS","sourceid":"","polygonlabel":"Centroid","Class":"Point_Centroid","affectedcountries":[{"iso2":"CD","iso3":"COD","countryname":"Democratic Republic of Congo"}],"severitydata":{"severity":0,"severitytext":"Magnitude 0 ","severityunit":""}}},{"type":"Feature","bbox":[-68.1080335,-16.5063698,-68.1080335,-16.5063698],"geometry":{"type":"Point","coordinates":[-68.1080335,-16.5063698]},"properties":{"eventtype":"FL","eventid":1103218,"episodeid":4,"eventname":"","glide":"FL-2025-000057-BOL","name":"Flood in Bolivia","description":"Flood in Bolivia","htmldescription":"Orange Flood in Bolivia from: 16 Apr 2025 13 to: 06 May 2025 01.","icon":"https://www.gdacs.org/images/gdacs_icons/maps/Green/FL.png","iconoverall":"https://www.gdacs.org/images/gdacs_icons/maps/Orange/FL.png","url":{"geometry":"https://www.gdacs.org/gdacsapi/api/polygons/getgeometry?eventtype=FL&eventid=1103218&episodeid=4","report":"https://www.gdacs.org/report.aspx?eventid=1103218&episodeid=4&eventtype=FL","details":"https://www.gdacs.org/gdacsapi/api/events/geteventdata?eventtype=FL&eventid=1103218"},"alertlevel":"Orange","alertscore":2,"episodealertlevel":"Green","episodealertscore":0.5,"istemporary":"false","iscurrent":"false","country":"Bolivia","fromdate":"2025-04-16T13:00:00","todate":"2025-05-06T01:00:00","datemodified":"2025-05-07T06:34:49","iso3":"BOL","source":"GLOFAS","sourceid":"","polygonlabel":"Centroid","Class":"Point_Centroid","affectedcountries":[{"iso2":"BO","iso3":"BOL","countryname":"Bolivia"}],"severitydata":{"severity":0,"severitytext":"Magnitude 0 ","severityunit":""}}},{"type":"Feature","bbox":[29.1778624,-5.9010019,29.1778624,-5.9010019],"geometry":{"type":"Point","coordinates":[29.1778624,-5.9010019]},"properties":{"eventtype":"FL","eventid":1103210,"episodeid":3,"eventname":"","glide":"FL-2025-000050-COD","name":"Flood in Democratic Republic of Congo","description":"Flood in Democratic Republic of Congo","htmldescription":"Orange Flood in Democratic Republic of Congo from: 28 Mar 2025 01 to: 17 Apr 2025 11.","icon":"https://www.gdacs.org/images/gdacs_icons/maps/Green/FL.png","iconoverall":"https://www.gdacs.org/images/gdacs_icons/maps/Orange/FL.png","url":{"geometry":"https://www.gdacs.org/gdacsapi/api/polygons/getgeometry?eventtype=FL&eventid=1103210&episodeid=3","report":"https://www.gdacs.org/report.aspx?eventid=1103210&episodeid=3&eventtype=FL","details":"https://www.gdacs.org/gdacsapi/api/events/geteventdata?eventtype=FL&eventid=1103210"},"alertlevel":"Orange","alertscore":2,"episodealertlevel":"Green","episodealertscore":0.5,"istemporary":"false","iscurrent":"false","country":"Democratic Republic of Congo","fromdate":"2025-03-28T01:00:00","todate":"2025-04-17T11:00:00","datemodified":"2025-04-18T07:30:34","iso3":"COD","source":"GLOFAS","sourceid":"","polygonlabel":"Centroid","Class":"Point_Centroid","affectedcountries":[{"iso2":"CD","iso3":"COD","countryname":"Democratic Republic of Congo"}],"severitydata":{"severity":0,"severitytext":"Magnitude 0 ","severityunit":""}}}],"bbox":null}